[{"OBJECT_NAME":"STARLINK-4542","OBJECT_ID":"2022-097AZ","EPOCH":"2026-03-09T19:15:38.357856","MEAN_MOTION":15.08841284,"ECCENTRICITY":0.00011218,"INCLINATION":53.2163,"RA_OF_ASC_NODE":103.4146,"ARG_OF_PERICENTER":89.4077,"MEAN_ANOMALY":270.7043,"EPHEMERIS_TYPE":0,"CLASSIFICATION_TYPE":"U","NORAD_CAT_ID":53435,"ELEMENT_SET_NO":999,"REV_AT_EPOCH":19878,"BSTAR":-5.621592e-6,"MEAN_MOTION_DOT":-3.77e-6,"MEAN_MOTION_DDOT":0},{"OBJECT_NAME":"CZ-2D DEB","OBJECT_ID":"2010-027D","EPOCH":"2026-03-07T13:36:06.977952","MEAN_MOTION":15.23568143,"ECCENTRICITY":0.0065729,"INCLINATION":97.6621,"RA_OF_ASC_NODE":290.9585,"ARG_OF_PERICENTER":344.0278,"MEAN_ANOMALY":15.8885,"EPHEMERIS_TYPE":0,"CLASSIFICATION_TYPE":"U","NORAD_CAT_ID":38299,"ELEMENT_SET_NO":999,"REV_AT_EPOCH":83553,"BSTAR":0.0024156,"MEAN_MOTION_DOT":0.00061723,"MEAN_MOTION_DDOT":0}]
